{"fetched_at":"2026-03-27T07:04:08Z","count":10282,"tles":[{"name":"ARIANE 5 R/B","line1":"1 28499U 04049H   26085.47456975  .00000773  00000+0  91877-4 0  9999","line2":"2 28499  98.2653 254.5630 0082970 297.0759  62.2007 14.85294952148286","category":"Other"},{"name":"ALOS (DAICHI)","line1":"1 28931U 06002A   26085.38569357  .00001332  00000+0  23109-3 0  9994","line2":"2 28931  98.1244  41.2608 0000801 102.6202 257.5093 14.69859086 75937","category":"Other"},{"name":"CZ-4B R/B","line1":"1 28059U 03049C   26085.43788478  .00000348  00000+0  91214-4 0  9995","line2":"2 28059  98.6893  81.0018 0048143 179.2225 180.9054 14.55034698189038","category":"Other"},{"name":"CZ-2D R/B","line1":"1 28738U 05024B   26085.50561078  .00042277  00000+0  49081-3 0  9998","line2":"2 28738  97.3587 101.2870 0002821 351.1868   8.9340 15.61656493142404","category":"Other"},{"name":"CZ-2C R/B","line1":"1 28222U 04012C   26085.10045788  .00057643  00000+0  54995-3 0  9996","line2":"2 28222  97.7192 151.9693 0013202 243.0896 116.9015 15.66488362206849","category":"Other"},{"name":"CZ-4B R/B","line1":"1 28415U 04035C   26085.52978460  .00007535  00000+0  26385-3 0  9990","line2":"2 28415  97.3477 119.5717 0029967 268.5715  91.2092 15.29349140182481","category":"Other"},{"name":"SL-16 R/B","line1":"1 28353U 04021B   26085.42805723  .00000102  00000+0  77697-4 0  9992","line2":"2 28353  71.0005 197.3658 0004840 349.4452  10.6567 14.14593929125204","category":"Other"},{"name":"CZ-4B R/B","line1":"1 27432U 02024C   26085.40218784  .00000039  00000+0  42885-4 0  9993","line2":"2 27432  98.8804 138.7221 0049620 336.6977  34.2014 14.14550521231607","category":"Other"},{"name":"MIDORI II (ADEOS-II)","line1":"1 27597U 02056A   26085.39475824  .00000304  00000+0  13734-3 0  9993","line2":"2 27597  98.7798  43.9908 0000874  25.5569 334.5656 14.29297174212681","category":"Other"},{"name":"CZ-2C R/B","line1":"1 28480U 04046B   26085.31399097  .00000130  00000+0  62769-4 0  9995","line2":"2 28480  98.1976 359.2623 0140582 105.5791 256.0958 14.26997751110875","category":"Other"},{"name":"AQUA","line1":"1 27424U 02022A   26085.52212014  .00000954  00000+0  19997-3 0  9998","line2":"2 27424  98.4202  53.1973 0001041 117.5722 310.4425 14.62013935271198","category":"Other"},{"name":"H-2A R/B","line1":"1 27601U 02056E   26085.39651927  .00000286  00000+0  11449-3 0  9999","line2":"2 27601  98.3231  45.1290 0071304 111.4163   2.2036 14.33771343216500","category":"Other"}]}