CCSDS_OMM_VERS = 2.0
CREATION_DATE  = 
ORIGINATOR     = 

OBJECT_NAME    = AQUA
OBJECT_ID      = 2002-022A
CENTER_NAME    = EARTH
REF_FRAME      = TEME
TIME_SYSTEM    = UTC
MEAN_ELEMENT_THEORY = SGP/SGP4

EPOCH          = 2026-03-26T12:31:51.180096
MEAN_MOTION    = 14.62013935
ECCENTRICITY   = .0001041
INCLINATION    = 98.4202
RA_OF_ASC_NODE = 53.1973
ARG_OF_PERICENTER = 117.5722
MEAN_ANOMALY   = 310.4425

EPHEMERIS_TYPE = 0
CLASSIFICATION_TYPE = U
NORAD_CAT_ID   = 27424
ELEMENT_SET_NO = 999
REV_AT_EPOCH   = 27119
BSTAR          = .19997E-3
MEAN_MOTION_DOT = .954E-5
MEAN_MOTION_DDOT = 0

CCSDS_OMM_VERS = 2.0
CREATION_DATE  = 
ORIGINATOR     = 

OBJECT_NAME    = CZ-4B R/B
OBJECT_ID      = 2002-024C
CENTER_NAME    = EARTH
REF_FRAME      = TEME
TIME_SYSTEM    = UTC
MEAN_ELEMENT_THEORY = SGP/SGP4

EPOCH          = 2026-03-26T09:39:09.029376
MEAN_MOTION    = 14.14550521
ECCENTRICITY   = .004962
INCLINATION    = 98.8804
RA_OF_ASC_NODE = 138.7221
ARG_OF_PERICENTER = 336.6977
MEAN_ANOMALY   = 34.2014

EPHEMERIS_TYPE = 0
CLASSIFICATION_TYPE = U
NORAD_CAT_ID   = 27432
ELEMENT_SET_NO = 999
REV_AT_EPOCH   = 23160
BSTAR          = .42885E-4
MEAN_MOTION_DOT = .39E-6
MEAN_MOTION_DDOT = 0

CCSDS_OMM_VERS = 2.0
CREATION_DATE  = 
ORIGINATOR     = 

OBJECT_NAME    = MIDORI II (ADEOS-II)
OBJECT_ID      = 2002-056A
CENTER_NAME    = EARTH
REF_FRAME      = TEME
TIME_SYSTEM    = UTC
MEAN_ELEMENT_THEORY = SGP/SGP4

EPOCH          = 2026-03-26T09:28:27.111936
MEAN_MOTION    = 14.29297174
ECCENTRICITY   = .0000874
INCLINATION    = 98.7798
RA_OF_ASC_NODE = 43.9908
ARG_OF_PERICENTER = 25.5569
MEAN_ANOMALY   = 334.5656

EPHEMERIS_TYPE = 0
CLASSIFICATION_TYPE = U
NORAD_CAT_ID   = 27597
ELEMENT_SET_NO = 999
REV_AT_EPOCH   = 21268
BSTAR          = .13734E-3
MEAN_MOTION_DOT = .304E-5
MEAN_MOTION_DDOT = 0

CCSDS_OMM_VERS = 2.0
CREATION_DATE  = 
ORIGINATOR     = 

OBJECT_NAME    = H-2A R/B
OBJECT_ID      = 2002-056E
CENTER_NAME    = EARTH
REF_FRAME      = TEME
TIME_SYSTEM    = UTC
MEAN_ELEMENT_THEORY = SGP/SGP4

EPOCH          = 2026-03-26T09:30:59.264928
MEAN_MOTION    = 14.33771343
ECCENTRICITY   = .0071304
INCLINATION    = 98.3231
RA_OF_ASC_NODE = 45.1290
ARG_OF_PERICENTER = 111.4163
MEAN_ANOMALY   = 2.2036

EPHEMERIS_TYPE = 0
CLASSIFICATION_TYPE = U
NORAD_CAT_ID   = 27601
ELEMENT_SET_NO = 999
REV_AT_EPOCH   = 21650
BSTAR          = .11449E-3
MEAN_MOTION_DOT = .286E-5
MEAN_MOTION_DDOT = 0

CCSDS_OMM_VERS = 2.0
CREATION_DATE  = 
ORIGINATOR     = 

OBJECT_NAME    = CZ-4B R/B
OBJECT_ID      = 2003-049C
CENTER_NAME    = EARTH
REF_FRAME      = TEME
TIME_SYSTEM    = UTC
MEAN_ELEMENT_THEORY = SGP/SGP4

EPOCH          = 2026-03-26T10:30:33.244992
MEAN_MOTION    = 14.55034698
ECCENTRICITY   = .0048143
INCLINATION    = 98.6893
RA_OF_ASC_NODE = 81.0018
ARG_OF_PERICENTER = 179.2225
MEAN_ANOMALY   = 180.9054

EPHEMERIS_TYPE = 0
CLASSIFICATION_TYPE = U
NORAD_CAT_ID   = 28059
ELEMENT_SET_NO = 999
REV_AT_EPOCH   = 18903
BSTAR          = .91214E-4
MEAN_MOTION_DOT = .348E-5
MEAN_MOTION_DDOT = 0

CCSDS_OMM_VERS = 2.0
CREATION_DATE  = 
ORIGINATOR     = 

OBJECT_NAME    = CZ-2C R/B
OBJECT_ID      = 2004-012C
CENTER_NAME    = EARTH
REF_FRAME      = TEME
TIME_SYSTEM    = UTC
MEAN_ELEMENT_THEORY = SGP/SGP4

EPOCH          = 2026-03-26T02:24:39.560832
MEAN_MOTION    = 15.66488362
ECCENTRICITY   = .00132029
INCLINATION    = 97.7192
RA_OF_ASC_NODE = 151.9693
ARG_OF_PERICENTER = 243.0896
MEAN_ANOMALY   = 116.9015

EPHEMERIS_TYPE = 0
CLASSIFICATION_TYPE = U
NORAD_CAT_ID   = 28222
ELEMENT_SET_NO = 999
REV_AT_EPOCH   = 20684
BSTAR          = .54994722E-3
MEAN_MOTION_DOT = .57643E-3
MEAN_MOTION_DDOT = 0

CCSDS_OMM_VERS = 2.0
CREATION_DATE  = 
ORIGINATOR     = 

OBJECT_NAME    = SL-16 R/B
OBJECT_ID      = 2004-021B
CENTER_NAME    = EARTH
REF_FRAME      = TEME
TIME_SYSTEM    = UTC
MEAN_ELEMENT_THEORY = SGP/SGP4

EPOCH          = 2026-03-26T10:16:24.144672
MEAN_MOTION    = 14.14593929
ECCENTRICITY   = .000484
INCLINATION    = 71.0005
RA_OF_ASC_NODE = 197.3658
ARG_OF_PERICENTER = 349.4452
MEAN_ANOMALY   = 10.6567

EPHEMERIS_TYPE = 0
CLASSIFICATION_TYPE = U
NORAD_CAT_ID   = 28353
ELEMENT_SET_NO = 999
REV_AT_EPOCH   = 12520
BSTAR          = .77697E-4
MEAN_MOTION_DOT = .102E-5
MEAN_MOTION_DDOT = 0

CCSDS_OMM_VERS = 2.0
CREATION_DATE  = 
ORIGINATOR     = 

OBJECT_NAME    = CZ-4B R/B
OBJECT_ID      = 2004-035C
CENTER_NAME    = EARTH
REF_FRAME      = TEME
TIME_SYSTEM    = UTC
MEAN_ELEMENT_THEORY = SGP/SGP4

EPOCH          = 2026-03-26T12:42:53.389440
MEAN_MOTION    = 15.29349140
ECCENTRICITY   = .0029967
INCLINATION    = 97.3477
RA_OF_ASC_NODE = 119.5717
ARG_OF_PERICENTER = 268.5715
MEAN_ANOMALY   = 91.2092

EPHEMERIS_TYPE = 0
CLASSIFICATION_TYPE = U
NORAD_CAT_ID   = 28415
ELEMENT_SET_NO = 999
REV_AT_EPOCH   = 18248
BSTAR          = .26385E-3
MEAN_MOTION_DOT = .7535E-4
MEAN_MOTION_DDOT = 0

CCSDS_OMM_VERS = 2.0
CREATION_DATE  = 
ORIGINATOR     = 

OBJECT_NAME    = CZ-2C R/B
OBJECT_ID      = 2004-046B
CENTER_NAME    = EARTH
REF_FRAME      = TEME
TIME_SYSTEM    = UTC
MEAN_ELEMENT_THEORY = SGP/SGP4

EPOCH          = 2026-03-26T07:32:08.819808
MEAN_MOTION    = 14.26997751
ECCENTRICITY   = .0140582
INCLINATION    = 98.1976
RA_OF_ASC_NODE = 359.2623
ARG_OF_PERICENTER = 105.5791
MEAN_ANOMALY   = 256.0958

EPHEMERIS_TYPE = 0
CLASSIFICATION_TYPE = U
NORAD_CAT_ID   = 28480
ELEMENT_SET_NO = 999
REV_AT_EPOCH   = 11087
BSTAR          = .62769E-4
MEAN_MOTION_DOT = .13E-5
MEAN_MOTION_DDOT = 0

CCSDS_OMM_VERS = 2.0
CREATION_DATE  = 
ORIGINATOR     = 

OBJECT_NAME    = ARIANE 5 R/B
OBJECT_ID      = 2004-049H
CENTER_NAME    = EARTH
REF_FRAME      = TEME
TIME_SYSTEM    = UTC
MEAN_ELEMENT_THEORY = SGP/SGP4

EPOCH          = 2026-03-26T11:23:22.826400
MEAN_MOTION    = 14.85294952
ECCENTRICITY   = .008297
INCLINATION    = 98.2653
RA_OF_ASC_NODE = 254.5630
ARG_OF_PERICENTER = 297.0759
MEAN_ANOMALY   = 62.2007

EPHEMERIS_TYPE = 0
CLASSIFICATION_TYPE = U
NORAD_CAT_ID   = 28499
ELEMENT_SET_NO = 999
REV_AT_EPOCH   = 14828
BSTAR          = .91877E-4
MEAN_MOTION_DOT = .773E-5
MEAN_MOTION_DDOT = 0

CCSDS_OMM_VERS = 2.0
CREATION_DATE  = 
ORIGINATOR     = 

OBJECT_NAME    = CZ-2D R/B
OBJECT_ID      = 2005-024B
CENTER_NAME    = EARTH
REF_FRAME      = TEME
TIME_SYSTEM    = UTC
MEAN_ELEMENT_THEORY = SGP/SGP4

EPOCH          = 2026-03-26T12:08:04.771392
MEAN_MOTION    = 15.61656493
ECCENTRICITY   = .0002821
INCLINATION    = 97.3587
RA_OF_ASC_NODE = 101.2870
ARG_OF_PERICENTER = 351.1868
MEAN_ANOMALY   = 8.9340

EPHEMERIS_TYPE = 0
CLASSIFICATION_TYPE = U
NORAD_CAT_ID   = 28738
ELEMENT_SET_NO = 999
REV_AT_EPOCH   = 14240
BSTAR          = .49081E-3
MEAN_MOTION_DOT = .42277E-3
MEAN_MOTION_DDOT = 0

CCSDS_OMM_VERS = 2.0
CREATION_DATE  = 
ORIGINATOR     = 

OBJECT_NAME    = ALOS (DAICHI)
OBJECT_ID      = 2006-002A
CENTER_NAME    = EARTH
REF_FRAME      = TEME
TIME_SYSTEM    = UTC
MEAN_ELEMENT_THEORY = SGP/SGP4

EPOCH          = 2026-03-26T09:15:23.924448
MEAN_MOTION    = 14.69859086
ECCENTRICITY   = .0000801
INCLINATION    = 98.1244
RA_OF_ASC_NODE = 41.2608
ARG_OF_PERICENTER = 102.6202
MEAN_ANOMALY   = 257.5093

EPHEMERIS_TYPE = 0
CLASSIFICATION_TYPE = U
NORAD_CAT_ID   = 28931
ELEMENT_SET_NO = 999
REV_AT_EPOCH   = 7593
BSTAR          = .23109E-3
MEAN_MOTION_DOT = .1332E-4
MEAN_MOTION_DDOT = 0

